#aV2014  9  1  0  0  0.00000000     288 DD+AD WGS84 FIT  NGA
## 1808  86400.00000000   300.00000000 56901 0.0000000000000
+   31     1  2  4  5  6  7  8  9 10 11 12 13 14 15 16 17 18
+         19 20 21 22 23 24 25 26 27 28 29 30 31 32  0  0  0
+          0  0  0  0  0  0  0  0  0  0  0  0  0  0  0  0  0
+          0  0  0  0  0  0  0  0  0  0  0  0  0  0  0  0  0
+          0  0  0  0  0  0  0  0  0  0  0  0  0  0  0  0  0
++         2  2  2  2  2  2  2  2  2  2  2  2  2  2  2  2  2
++         2  2  2  2  2  2  2  2  2  2  2  2  2  2  0  0  0
++         0  0  0  0  0  0  0  0  0  0  0  0  0  0  0  0  0
++         0  0  0  0  0  0  0  0  0  0  0  0  0  0  0  0  0
++         0  0  0  0  0  0  0  0  0  0  0  0  0  0  0  0  0
%c cc cc ccc ccc cccc cccc cccc cccc ccccc ccccc ccccc ccccc
%c cc cc ccc ccc cccc cccc cccc cccc ccccc ccccc ccccc ccccc
%f  0.0000000  0.000000000  0.00000000000  0.000000000000000
%f  0.0000000  0.000000000  0.00000000000  0.000000000000000
%i    0    0    0    0      0      0      0      0         0
%i    0    0    0    0      0      0      0      0         0
/*      NGA, ST. LOUIS,MO.                                  
/*   EPHEMERIS COMPUTED FROM  1 DAYS OF DATA                
/*   EPOCHA SMOOTHER                                       
/* CCCCCCCCCCCCCCCCCCCCCCCCCCCCCCCCCCCCCCCCCCCCCCCCCCCCCCCCC
*  2014  9  1 16 10  0.00000000
P  1  13227.935264 -17155.908728  15219.374041     20.562033                    
V  1   -712.642563  19564.601295  22758.719838      0.005759                    
P  2 -14041.986624  -8930.252709 -20483.698580    515.948337                    
V  2   3763.003460 -26432.709921   8332.505533      0.021926                    
P  4   7028.598386 -24855.793658   5172.574048     -0.360423                    
V  4   2751.474441   7458.032363  30502.503791     -0.003018                    
P  5 -23338.832356   -422.258697 -12870.004617   -343.857266                    
V  5  14083.984062  -8467.029405 -25167.180166      0.036357                    
P  6  -7863.377170 -20387.089882 -15120.216232     -5.133806                    
V  6   4584.222443 -18722.557327  22866.633218     -0.000956                    
P  7   6670.762332 -25234.116658  -3644.093989    386.760661                    
V  7   1901.931092   5152.648965 -31807.597137      0.042991                    
P  8   8645.773481 -24525.443684  -2977.100209     15.349796                    
V  8   1087.624391   4517.571250 -32667.036717      0.001998                    
P  9  17942.742317  -3355.726793 -19469.194914     20.218085                    
V  9  18597.105428  15973.377854  14363.253184      0.006983                    
P 10 -10440.055388 -12581.259057 -21337.761385   -140.238113                    
V 10  24340.368208  -9965.145438  -5708.705037     -0.014880                    
P 11  14048.752609 -10363.373521  19470.284656   -517.923195                    
V 11   6449.368531  25438.371096   8846.765198     -0.030073                    
P 12 -24070.386326  10594.305719  -2829.511775    228.972555                    
V 12  -4011.920125   -796.501625  32230.083118      0.026226                    
P 13   5559.478403 -14800.473136 -21437.739106    -37.067778                    
V 13  19744.482632  18302.805838  -7726.320552     -0.039095                    
P 14  12201.121477  21162.921448  10846.576348    139.126239                    
V 14 -11270.566330  -7464.436981  27692.557241     -0.037165                    
P 15 -19668.628236   2048.056199  17810.744793   -200.320921                    
V 15 -17367.371146 -14738.705044 -17126.625514     -0.022269                    
P 16  23317.883204   1201.770391 -13050.013155   -197.700445                    
V 16 -15027.852923   6429.399568 -26031.015228      0.024512                    
P 17 -12411.858666 -20826.929613  11371.497012   -120.781511                    
V 17  11876.728747   7564.729116  27231.679189     -0.027474                    
P 18  -7250.691417  18060.778635  18405.301377    341.954611                    
V 18 -21711.014958   6858.448319 -16006.715100      0.025338                    
P 19  20576.127697   3786.725966  16459.859894   -476.533221                    
V 19  14253.239298  15519.282039 -20740.910141     -0.019289                    
P 20  20601.109180 -15439.068399  -6576.885199    228.822034                    
V 20   8975.546341   -200.132553  29504.594604      0.044380                    
P 21  -1976.343731  26216.028895   1918.928688   -381.626739                    
V 21  -4224.654837   1176.846415 -31284.489670     -0.021150                    
P 22   7055.248958  14516.917461  21315.963091    264.011624                    
V 22 -24629.108169  10340.367823    956.289668      0.035309                    
P 23  13896.050039  -8166.822140 -21048.113113    -49.035327                    
V 23  20828.801834  17161.273612   6627.698307     -0.029114                    
P 24 -14325.321407  13592.954828  17695.122698    -34.486559                    
V 24   1092.219063 -22601.409865  18325.017459     -0.006531                    
P 25 -16179.767289  16298.059631 -13303.553183     22.500917                    
V 25 -16264.259779   4571.563698  25658.208136     -0.008489                    
P 26 -21711.850870 -11355.817920   9938.543724    -40.094111                    
V 26  -8305.077759 -10818.429510 -28355.967681     -0.132748                    
P 27  22918.264253  11269.207456   7403.777085     10.955153                    
V 27   5895.949033   7739.612714 -29901.853802      0.031179                    
P 28  -1365.451682 -15116.708264  22393.423771    381.307909                    
V 28  25633.266866  -8201.353030  -4210.700442      0.025661                    
P 29  -4682.249316  15207.384255 -21244.966223    557.539331                    
V 29 -20784.443372 -17251.383414  -7717.894264      0.024325                    
P 30    447.226030 -25539.873286   7182.743594    -56.508205                    
V 30   4669.364311  -8331.849240 -29950.931856     -0.049823                    
P 31   8092.411340  18835.188123 -16558.785200    332.166007                    
V 31  -5317.671495  20802.481264  21173.024017     -0.003733                    
P 32  25462.003982  -4169.922854   4960.167848   -349.826551                    
V 32  -5005.476807   5339.064161  30954.894460      0.084936                    
EOF
